DIAMOND RED             
1 42783U 17036U   22182.53505796  .00003536  00000+0  13330-3 0  9995
2 42783  97.1978 222.8482 0008460 280.6764  79.3523 15.27669071279096
PEGASUS                 
1 42784U 17036V   22182.38151593  .00004729  00000+0  16971-3 0  9990
2 42784  97.1971 223.8632 0008091 276.8908  83.1412 15.29131544279142
DIAMOND GREEN           
1 42785U 17036W   22182.53361542  .00002584  00000+0  98239-4 0  9990
2 42785  97.1983 222.9120 0008309 282.3381  77.6929 15.27634043279160
DIAMOND BLUE            
1 42786U 17036X   22182.53269547  .00001708  00000+0  65839-4 0  9990
2 42786  97.1982 222.9029 0008336 282.6001  77.4306 15.27624562279162
NUDTSAT                 
1 42787U 17036Y   22182.58540823  .00011645  00000+0  35478-3 0  9991
2 42787  97.2006 228.2593 0006835 257.2124 102.8323 15.34104554279267
SUCHAI                  
1 42788U 17036Z   22182.55725673  .00005476  00000+0  18544-3 0  9997
2 42788  97.1979 225.7025 0007318 268.2158  91.8245 15.30956565279346
SKCUBE                  
1 42789U 17036AA  22182.56089710  .00004890  00000+0  16988-3 0  9993
2 42789  97.1978 225.1579 0007407 270.3600  89.6792 15.30181121279237
VZLUSAT-1               
1 42790U 17036AB  22182.39850931  .00008299  00000+0  25491-3 0  9993
2 42790  97.2004 228.0442 0006394 256.9139 103.1391 15.33943495279388
ROBUSTA-1B              
1 42792U 17036AD  22182.38110357  .00005632  00000+0  19215-3 0  9990
2 42792  97.1976 225.5551 0006958 270.6456  89.3988 15.30704896279251
CICERO 6                
1 42793U 17036AE  22182.55606855  .00003132  00000+0  11880-3 0  9996
2 42793  97.1958 223.4143 0006998 280.4463  79.5988 15.27561476279226
CORVUS BC2              
1 42846U 17042X   22182.55806112  .00000654  00000+0  68051-4 0  9999
2 42846  97.4216  39.0688 0008276 317.3806  42.6771 14.92926831270382
CORVUS BC1              
1 42847U 17042Y   22182.57064363  .00000421  00000+0  45528-4 0  9992
2 42847  97.4216  39.3889 0007905 316.6471  43.4126 14.93031222270393
MIRATA                  
1 43015U 17073C   22182.58192101  .00002808  00000+0  20602-3 0  9993
2 43015  97.6732  77.3657 0239541 134.3830 227.7281 14.84080486249366
MAKERSAT 0              
1 43016U 17073D   22182.49385319  .00001650  00000+0  12572-3 0  9990
2 43016  97.6749  76.8308 0246359 139.0806 222.9192 14.82379881249278
AEROCUBE 7B (OCSD B)    
1 43042U 17071F   22182.65486328  .00143549  00000+0  54789-3 0  9997
2 43042  51.6319 328.7827 0007238 286.9787  73.0424 15.86531898257945
AEROCUBE 7C (OCSD C)    
1 43043U 17071G   22182.78295323  .00115780  00000+0  52573-3 0  9990
2 43043  51.6296 330.3585 0006130 282.5241  77.5076 15.83008875257906
ASGARDIA 1              
1 43049U 17071N   22182.51837533  .00068797  00000+0  42900-3 0  9990
2 43049  51.6317 334.8162 0003554 267.2100  92.8493 15.76253280257825
PROPCUBE 2 (FAUNA)      
1 43052U 17071R   22182.34467324  .00175653  00000+0  60497-3 0  9993
2 43052  51.6240 324.5094 0007080 295.9263  64.1012 15.88522224257931
CORVUS BC3              
1 43118U 18004H   22182.45391688  .00002957  00000+0  11255-3 0  9998
2 43118  97.3621 254.9803 0007726 320.5989  39.4688 15.27510642248359
MICROMAS-2A             
1 43131U 18004W   22182.48422045  .00009899  00000+0  27737-3 0  9992
2 43131  97.3755 261.8000 0004417 296.5577  63.5214 15.36803526248738
SPACEBEE-4              
1 43139U 18004AE  22182.48571333  .00020267  00000+0  42430-3 0  9994
2 43139  97.3851 266.8986 0003376 261.8667  98.2199 15.45472939249018
SPACEBEE-3              
1 43140U 18004AF  22182.46470595  .00050905  00000+0  71040-3 0  9993
2 43140  97.3887 270.8487 0004152 226.4168 133.6743 15.56727933249249
SPACEBEE-2              
1 43141U 18004AG  22182.52850451  .00075498  00000+0  83587-3 0  9997
2 43141  97.3897 272.5428 0005399 223.0535 137.0301 15.62739206249342
SPACEBEE-1              
1 43142U 18004AH  22182.47749043  .00146956  00000+0  10430-2 0  9990
2 43142  97.3880 274.4227 0007784 228.8078 131.2515 15.73443848249448
CICERO 7                
1 43143U 18004AJ  22182.48957223  .00006301  00000+0  19438-3 0  9990
2 43143  97.3735 261.2794 0003854 315.6162  44.4772 15.33928884248728
GOMX-4B                 
1 43196U 18015E   22182.37268413  .00002466  00000+0  95016-4 0  9999
2 43196  97.5357 321.8848 0017176  13.5829 346.5868 15.27198838245288
GOMX-4A                 
1 43197U 18015F   22182.87325457  .00004058  00000+0  14650-3 0  9990
2 43197  97.5346 323.2265 0017026  10.7301 148.1773 15.28955080245422
AEROCUBE 12A            
1 43556U 18046C   22182.52429828  .00008149  00000+0  21277-3 0  9990
2 43556  51.6371 115.2513 0008312  85.0596 275.1337 15.39677625221489
AEROCUBE 12B            
1 43557U 18046D   22182.54405924  .00005856  00000+0  16613-3 0  9994
2 43557  51.6382 119.8133 0008344  81.9410 278.2520 15.37669193221370
SURFSAT                 
1 43614U 18070B   22182.73041935  .00019393  00000+0  27679-3 0  9999
2 43614  93.0311 104.8183 0008127 341.2494  18.8469 15.56185056213281
CP7 (DAVE)              
1 43615U 18070C   22182.75089274  .00016477  00000+0  24694-3 0  9994
2 43615  93.0294 104.6687 0008950 345.1645  14.9354 15.54856950213257
ELFIN-B                 
1 43616U 18070D   22182.54786347  .00054036  00000+0  45685-3 0  9993
2 43616  93.0199 105.8696 0003704 347.6940  12.4239 15.69569704213565
ELFIN-A                 
1 43617U 18070E   22182.78374847  .00066553  00000+0  50170-3 0  9990
2 43617  93.0262 107.3572 0001978 345.3298  14.7917 15.72296896213650
CUBEBEL-1 (BSUSAT-1)    
1 43666U 18083E   22182.65380769  .00005753  00000+0  24399-3 0  9993
2 43666  97.4192 211.1769 0011123 285.0368 196.5246 15.23455404203647
CICERO 10               
1 43690U 18088A   22182.40992625  .00003610  00000+0  14252-3 0  9995
2 43690  85.0374 307.0702 0015566  96.4611 263.8405 15.25036291201881
IRVINE01                
1 43693U 18088D   22182.58208735  .00016894  00000+0  43983-3 0  9990
2 43693  85.0298 301.2601 0012262  65.1005 295.1519 15.38678022202392
PROXIMA I               
1 43694U 18088E   22182.35514377  .00003903  00000+0  14661-3 0  9996
2 43694  85.0309 303.7640 0018773  66.7426 293.5793 15.26658270202096
PROXIMA II              
1 43696U 18088G   22182.81432554  .00003904  00000+0  14673-3 0  9999
2 43696  85.0310 303.4768 0018798  65.0718 295.2477 15.26640189202156
FACSAT-1                
1 43721U 18096C   22182.50332356  .00011812  00000+0  33052-3 0  9991
2 43721  97.3514 262.3110 0013158  10.7080  45.8575 15.36720058200134
CENTAURI-2              
1 43722U 18096D   22182.52610001  .00010756  00000+0  27015-3 0  9998
2 43722  97.3558 264.3851 0011605   5.6383 354.4992 15.40099171200245
INNOSAT-2               
1 43738U 18096V   22182.75897426  .00029239  00000+0  51270-3 0  9994
2 43738  97.3664 271.9048 0010866 350.3023 133.4695 15.50460524200724
SIRION PATHFINDER-2     
1 43759U 18099B   22182.48247972  .00000693  00000+0  66114-4 0  9992
2 43759  97.6204 248.8848 0013081 208.0535 151.9983 14.96401700195144
CORVUS BC4              
1 43767U 18099K   22182.50930870  .00000658  00000+0  63945-4 0  9990
2 43767  97.6153 247.3979 0010758 213.6735 146.3804 14.95792222195070
MOVE-II                 
1 43780U 18099Y   22182.44579254  .00001506  00000+0  13295-3 0  9998
2 43780  97.6228 249.5881 0012409 218.9226 141.1104 14.97802986195158
SPACEBEE-7              
1 43816U 18099BL  22182.43349145  .00000649  00000+0  60221-4 0  9990
2 43816  97.6258 250.3055 0012337 202.0569 158.0124 14.97702445194740
SPACEBEE-5              
1 43817U 18099BM  22182.46305481  .00003592  00000+0  28333-3 0  9996
2 43817  97.6380 253.2865 0007033 209.8977 150.1846 15.01347171194878
SPACEBEE-6              
1 43818U 18099BN  22182.44716766  .00001750  00000+0  15005-3 0  9993
2 43818  97.6285 251.2131 0012710 202.1205 157.9471 14.98741896194938
SHIELDS 1               
1 43850U 18104B   22182.56012326  .00001617  00000+0  65662-4 0  9997
2 43850  85.0278  42.8583 0012862 205.1223 154.9396 15.23655423196656
STF-1                   
1 43852U 18104D   22182.55775416  .00003894  00000+0  14574-3 0  9998
2 43852  85.0302  43.1370 0011099 217.4934 142.5538 15.26899289196698
ZACUBE-2                
1 43907U 18111AH  22182.59431292  .00005378  00000+0  19860-3 0  9994
2 43907  97.1898  68.3909 0021204  34.5643  56.0230 15.27944592195454
LUME 1                  
1 43908U 18111AJ  22182.24034256  .00004420  00000+0  15111-3 0  9998
2 43908  97.1900  69.6153 0019403  30.6431 329.5939 15.30604191195506
AOBA VELOX-IV           
1 43940U 19003J   22182.54295051  .00013425  00000+0  35790-3 0  9990
2 43940  97.1242 217.9783 0019600  95.5882 264.7600 15.38072117192290
MOVE-IIB                
1 44398U 19038N   22182.59017771  .00006854  00000+0  33045-3 0  9991
2 44398  97.6282 152.0731 0023565  80.1184 280.2683 15.18798290165186
SONATE                  
1 44400U 19038Q   22182.59421347  .00002686  00000+0  14756-3 0  9990
2 44400  97.6398 151.1633 0025304  84.2766 276.1340 15.14729700165071
LUCKY-7                 
1 44406U 19038W   22182.45209024  .00002688  00000+0  14396-3 0  9999
2 44406  97.6390 151.5364 0024639  83.0626 277.3408 15.15656359165085
BEESAT 9                
1 44412U 19038AC  22182.43556319  .00003144  00000+0  16162-3 0  9997
2 44412  97.6362 151.8239 0022348  86.4963 273.8825 15.17015718164815
JAISAT-1                
1 44419U 19038F   22182.48285879  .00003322  00000+0  16838-3 0  9997
2 44419  97.6364 152.7200 0021327  83.8454 276.5208 15.17491149165186
DUCHIFAT-3              
1 44854U 19089C   22182.54161130  .00002352  00000+0  18601-3 0  9998
2 44854  36.9685  16.8204 0009640 334.0365  25.9929 15.01158890140052
EYESAT-NANO             
1 44877U 19092E   22182.51131329  .00004118  00000+0  17935-3 0  9992
2 44877  97.4634   6.7812 0009951 311.4115  48.6265 15.22735846140503
